ISS (ZARYA)             
1 25544U 98067A   26049.79608032  .00009878  00000+0  18896-3 0  9992
2 25544  51.6323 165.7431 0010935 112.1599 248.0551 15.48691264553403
CSS (TIANHE)            
1 48274U 21035A   26050.21688436  .00024817  00000+0  30290-3 0  9995
2 48274  41.4677 320.4938 0004452 142.8604 217.2543 15.59868728274720
ISS (NAUKA)             
1 49044U 21066A   26049.79608032  .00009878  00000+0  18896-3 0  9998
2 49044  51.6323 165.7431 0010935 112.1599 248.0551 15.48691264230440
FREGAT DEB              
1 49271U 11037PF  26050.21758832  .00033465  00000+0  52270-1 0  9991
2 49271  51.6519 356.0885 0943473  16.9489 346.0742 12.38977397210403
CSS (WENTIAN)           
1 53239U 22085A   26050.21688436  .00024817  00000+0  30290-3 0  9998
2 53239  41.4677 320.4938 0004452 142.8604 217.2543 15.59868728173848
CSS (MENGTIAN)          
1 54216U 22143A   26050.21688436  .00024817  00000+0  30290-3 0  9999
2 54216  41.4677 320.4938 0004452 142.8604 217.2543 15.59868728158645
PROGRESS-MS 31          
1 64751U 25146A   26049.79608032  .00009878  00000+0  18896-3 0  9993
2 64751  51.6323 165.7431 0010935 112.1599 248.0551 15.48691264  6757
TIANZHOU-9              
1 64786U 25149A   26050.21688436  .00024817  00000+0  30290-3 0  9991
2 64786  41.4677 320.4938 0004452 142.8604 217.2543 15.59868728255309
DRAGON CRS-33           
1 65304U 25186A   26049.79608032  .00009878  00000+0  18896-3 0  9992
2 65304  51.6323 165.7431 0010935 112.1599 248.0551 15.48691264   116
PROGRESS-MS 32          
1 65586U 25204A   26049.79608032  .00009878  00000+0  18896-3 0  9995
2 65586  51.6323 165.7431 0010935 112.1599 248.0551 15.48691264   275
CYGNUS NG-23            
1 65616U 25208A   26049.79608032  .00009878  00000+0  18896-3 0  9993
2 65616  51.6323 165.7431 0010935 112.1599 248.0551 15.48691264   224
ISS OBJECT XK           
1 65731U 98067XK  26050.29536807  .00347088  56384-4  10637-2 0  9994
2 65731  51.6213 144.2397 0006706 351.2261   8.8626 15.91323264 23956
